{"type": "FeatureCollection", "features": [ {"type": "Feature", "properties": {"norad_id": 36073, "name": "COSMOS 2251 DEB", "group": "cosmos-2251-debris", "lat": -35.53619368910542, "lon": 151.75184214804818, "alt_km": 797.8898667607682, "timestamp": "2025-12-14T03:55:53.185243+00:00", "meta": {"OBJECT_NAME": "COSMOS 2251 DEB", "OBJECT_ID": "1993-036AYL", "EPOCH": "2025-12-10T05:13:27.011136", "MEAN_MOTION": 14.34947803, "ECCENTRICITY": 0.0023742, "INCLINATION": 74.0319, "RA_OF_ASC_NODE": 327.182, "ARG_OF_PERICENTER": 35.9086, "MEAN_ANOMALY": 324.3656, "EPHEMERIS_TYPE": 0, "CLASSIFICATION_TYPE": "U", "NORAD_CAT_ID": 36073, "ELEMENT_SET_NO": 999, "REV_AT_EPOCH": 70171, "BSTAR": 0.00037536, "MEAN_MOTION_DOT": 1.045e-05, "MEAN_MOTION_DDOT": 0}, "tle": {"line1": "1 36073U 93036AYL 25344.21767374  .00001045  00000+0  37536-3 0  9991", "line2": "2 36073  74.0319 327.1820 0023742  35.9086 324.3656 14.34947803701715"}}, "geometry": {"type": "Point", "coordinates": [151.75184214804818, -35.53619368910542]}}, {"type": "Feature", "properties": {"norad_id": 36074, "name": "COSMOS 2251 DEB", "group": "cosmos-2251-debris", "lat": 37.31982782111336, "lon": -9.518381363682094, "alt_km": 717.7171774844292, "timestamp": "2025-12-14T03:55:53.185253+00:00", "meta": {"OBJECT_NAME": "COSMOS 2251 DEB", "OBJECT_ID": "1993-036AYM", "EPOCH": "2025-12-04T07:35:54.379968", "MEAN_MOTION": 14.43651509, "ECCENTRICITY": 0.0041318, "INCLINATION": 73.9929, "RA_OF_ASC_NODE": 356.1864, "ARG_OF_PERICENTER": 90.6412, "MEAN_ANOMALY": 269.9479, "EPHEMERIS_TYPE": 0, "CLASSIFICATION_TYPE": "U", "NORAD_CAT_ID": 36074, "ELEMENT_SET_NO": 999, "REV_AT_EPOCH": 85788, "BSTAR": 0.0017767, "MEAN_MOTION_DOT": 6.071e-05, "MEAN_MOTION_DDOT": 0}, "tle": {"line1": "1 36074U 93036AYM 25338.31660162  .00006071  00000+0  17767-2 0  9990", "line2": "2 36074  73.9929 356.1864 0041318  90.6412 269.9479 14.43651509857883"}}, "geometry": {"type": "Point", "coordinates": [-9.518381363682094, 37.31982782111336]}}, {"type": "Feature", "properties": {"norad_id": 36366, "name": "COSMOS 2251 DEB", "group": "cosmos-2251-debris", "lat": -70.95761092544687, "lon": -145.40061966296145, "alt_km": 725.3028417669138, "timestamp": "2025-12-14T03:55:53.185263+00:00", "meta": {"OBJECT_NAME": "COSMOS 2251 DEB", "OBJECT_ID": "1993-036AYT", "EPOCH": "2025-12-11T12:38:43.259712", "MEAN_MOTION": 14.33372709, "ECCENTRICITY": 0.00908134, "INCLINATION": 74.0648, "RA_OF_ASC_NODE": 275.2795, "ARG_OF_PERICENTER": 303.7675, "MEAN_ANOMALY": 55.4849, "EPHEMERIS_TYPE": 0, "CLASSIFICATION_TYPE": "U", "NORAD_CAT_ID": 36366, "ELEMENT_SET_NO": 999, "REV_AT_EPOCH": 86271, "BSTAR": 0.0030636872, "MEAN_MOTION_DOT": 8.83e-05, "MEAN_MOTION_DDOT": 0}, "tle": {"line1": "1 36366U 93036AYT 25345.52688958  .00008830  00000+0  30637-2 0  9994", "line2": "2 36366  74.0648 275.2795 0090813 303.7675  55.4849 14.33372709862712"}}, "geometry": {"type": "Point", "coordinates": [-145.40061966296145, -70.95761092544687]}}, {"type": "Feature", "properties": {"norad_id": 36367, "name": "COSMOS 2251 DEB", "group": "cosmos-2251-debris", "lat": 70.43427051287375, "lon": -77.66264490455349, "alt_km": 1072.340989546581, "timestamp": "2025-12-14T03:55:53.185273+00:00", "meta": {"OBJECT_NAME": "COSMOS 2251 DEB", "OBJECT_ID": "1993-036AYU", "EPOCH": "2025-12-11T01:04:58.660896", "MEAN_MOTION": 13.86314595, "ECCENTRICITY": 0.02625211, "INCLINATION": 74.1007, "RA_OF_ASC_NODE": 234.2792, "ARG_OF_PERICENTER": 307.5422, "MEAN_ANOMALY": 50.2108, "EPHEMERIS_TYPE": 0, "CLASSIFICATION_TYPE": "U", "NORAD_CAT_ID": 36367, "ELEMENT_SET_NO": 999, "REV_AT_EPOCH": 57506, "BSTAR": 0.0022824489, "MEAN_MOTION_DOT": 3.437e-05, "MEAN_MOTION_DDOT": 0}, "tle": {"line1": "1 36367U 93036AYU 25345.04512339  .00003437  00000+0  22824-2 0  9998", "line2": "2 36367  74.1007 234.2792 0262521 307.5422  50.2108 13.86314595575060"}}, "geometry": {"type": "Point", "coordinates": [-77.66264490455349, 70.43427051287375]}}, {"type": "Feature", "properties": {"norad_id": 36369, "name": "COSMOS 2251 DEB", "group": "cosmos-2251-debris", "lat": -34.68139650673853, "lon": 56.52470290124485, "alt_km": 663.4337207437829, "timestamp": "2025-12-14T03:55:53.185283+00:00", "meta": {"OBJECT_NAME": "COSMOS 2251 DEB", "OBJECT_ID": "1993-036AYW", "EPOCH": "2025-12-11T22:19:37.226208", "MEAN_MOTION": 14.73546352, "ECCENTRICITY": 0.00113486, "INCLINATION": 74.0308, "RA_OF_ASC_NODE": 72.3076, "ARG_OF_PERICENTER": 150.9218, "MEAN_ANOMALY": 209.2589, "EPHEMERIS_TYPE": 0, "CLASSIFICATION_TYPE": "U", "NORAD_CAT_ID": 36369, "ELEMENT_SET_NO": 999, "REV_AT_EPOCH": 85910, "BSTAR": 0.0022300605, "MEAN_MOTION_DOT": 0.00014521, "MEAN_MOTION_DDOT": 0}, "tle": {"line1": "1 36369U 93036AYW 25345.93029197  .00014521  00000+0  22301-2 0  9999", "line2": "2 36369  74.0308  72.3076 0011348 150.9218 209.2589 14.73546352859107"}}, "geometry": {"type": "Point", "coordinates": [56.52470290124485, -34.68139650673853]}}, {"type": "Feature", "properties": {"norad_id": 36371, "name": "COSMOS 2251 DEB", "group": "cosmos-2251-debris", "lat": -36.986252997860916, "lon": -8.763131132030395, "alt_km": 658.6862797102685, "timestamp": "2025-12-14T03:55:53.185294+00:00", "meta": {"OBJECT_NAME": "COSMOS 2251 DEB", "OBJECT_ID": "1993-036AYY", "EPOCH": "2025-12-13T04:05:01.207968", "MEAN_MOTION": 14.70618704, "ECCENTRICITY": 0.00096817, "INCLINATION": 74.0127, "RA_OF_ASC_NODE": 160.6969, "ARG_OF_PERICENTER": 198.9381, "MEAN_ANOMALY": 161.1432, "EPHEMERIS_TYPE": 0, "CLASSIFICATION_TYPE": "U", "NORAD_CAT_ID": 36371, "ELEMENT_SET_NO": 999, "REV_AT_EPOCH": 71451, "BSTAR": 0.0027229729, "MEAN_MOTION_DOT": 0.00016584, "MEAN_MOTION_DDOT": 0}, "tle": {"line1": "1 36371U 93036AYY 25347.17015287  .00016584  00000+0  27230-2 0  9992", "line2": "2 36371  74.0127 160.6969 0009681 198.9381 161.1432 14.70618704714517"}}, "geometry": {"type": "Point", "coordinates": [-8.763131132030395, -36.986252997860916]}}, {"type": "Feature", "properties": {"norad_id": 36379, "name": "COSMOS 2251 DEB", "group": "cosmos-2251-debris", "lat": -23.71434395803029, "lon": 131.43995295165078, "alt_km": 797.7995745436947, "timestamp": "2025-12-14T03:55:53.185304+00:00", "meta": {"OBJECT_NAME": "COSMOS 2251 DEB", "OBJECT_ID": "1993-036AZG", "EPOCH": "2025-12-13T03:39:01.651680", "MEAN_MOTION": 14.36079534, "ECCENTRICITY": 0.00446264, "INCLINATION": 74.0126, "RA_OF_ASC_NODE": 306.0647, "ARG_OF_PERICENTER": 74.8853, "MEAN_ANOMALY": 301.0382, "EPHEMERIS_TYPE": 0, "CLASSIFICATION_TYPE": "U", "NORAD_CAT_ID": 36379, "ELEMENT_SET_NO": 999, "REV_AT_EPOCH": 64834, "BSTAR": 0.00045338854, "MEAN_MOTION_DOT": 1.309e-05, "MEAN_MOTION_DDOT": 0}, "tle": {"line1": "1 36379U 93036AZG 25347.15210245  .00001309  00000+0  45339-3 0  9999", "line2": "2 36379  74.0126 306.0647 0044626  74.8853 301.0382 14.36079534648347"}}, "geometry": {"type": "Point", "coordinates": [131.43995295165078, -23.71434395803029]}}, {"type": "Feature", "properties": {"norad_id": 36385, "name": "COSMOS 2251 DEB", "group": "cosmos-2251-debris", "lat": -16.523550189078655, "lon": 146.86168810806345, "alt_km": 562.2361654547012, "timestamp": "2025-12-14T03:55:53.185315+00:00", "meta": {"OBJECT_NAME": "COSMOS 2251 DEB", "OBJECT_ID": "1993-036AZN", "EPOCH": "2025-12-12T21:01:44.669280", "MEAN_MOTION": 14.72571648, "ECCENTRICITY": 0.01412662, "INCLINATION": 73.9694, "RA_OF_ASC_NODE": 154.2714, "ARG_OF_PERICENTER": 328.6533, "MEAN_ANOMALY": 30.6271, "EPHEMERIS_TYPE": 0, "CLASSIFICATION_TYPE": "U", "NORAD_CAT_ID": 36385, "ELEMENT_SET_NO": 999, "REV_AT_EPOCH": 85104, "BSTAR": 0.0019203945, "MEAN_MOTION_DOT": 0.00014301, "MEAN_MOTION_DDOT": 0}, "tle": {"line1": "1 36385U 93036AZN 25346.87621145  .00014301  00000+0  19204-2 0  9996", "line2": "2 36385  73.9694 154.2714 0141266 328.6533  30.6271 14.72571648851041"}}, "geometry": {"type": "Point", "coordinates": [146.86168810806345, -16.523550189078655]}}, {"type": "Feature", "properties": {"norad_id": 36420, "name": "COSMOS 2251 DEB", "group": "cosmos-2251-debris", "lat": 73.900444920847, "lon": -4.532551576965353, "alt_km": 760.7912700816269, "timestamp": "2025-12-14T03:55:53.185325+00:00", "meta": {"OBJECT_NAME": "COSMOS 2251 DEB", "OBJECT_ID": "1993-036AZT", "EPOCH": "2025-12-09T05:12:09.080064", "MEAN_MOTION": 14.36895704, "ECCENTRICITY": 0.001793, "INCLINATION": 74.0374, "RA_OF_ASC_NODE": 281.9559, "ARG_OF_PERICENTER": 10.5601, "MEAN_ANOMALY": 57.255, "EPHEMERIS_TYPE": 0, "CLASSIFICATION_TYPE": "U", "NORAD_CAT_ID": 36420, "ELEMENT_SET_NO": 999, "REV_AT_EPOCH": 84986, "BSTAR": 0.00029505, "MEAN_MOTION_DOT": 8.48e-06, "MEAN_MOTION_DDOT": 0}, "tle": {"line1": "1 36420U 93036AZT 25343.21677176  .00000848  00000+0  29505-3 0  9993", "line2": "2 36420  74.0374 281.9559 0017930  10.5601  57.2550 14.36895704849860"}}, "geometry": {"type": "Point", "coordinates": [-4.532551576965353, 73.900444920847]}}, {"type": "Feature", "properties": {"norad_id": 36430, "name": "COSMOS 2251 DEB", "group": "cosmos-2251-debris", "lat": 58.10319195544404, "lon": 133.3938902343885, "alt_km": 861.0353560958292, "timestamp": "2025-12-14T03:55:53.185335+00:00", "meta": {"OBJECT_NAME": "COSMOS 2251 DEB", "OBJECT_ID": "1993-036BAD", "EPOCH": "2025-12-07T15:14:59.696160", "MEAN_MOTION": 14.27773173, "ECCENTRICITY": 0.00973352, "INCLINATION": 74.0036, "RA_OF_ASC_NODE": 117.7938, "ARG_OF_PERICENTER": 268.8676, "MEAN_ANOMALY": 90.1319, "EPHEMERIS_TYPE": 0, "CLASSIFICATION_TYPE": "U", "NORAD_CAT_ID": 36430, "ELEMENT_SET_NO": 999, "REV_AT_EPOCH": 64484, "BSTAR": 0.00083938099, "MEAN_MOTION_DOT": 2.154e-05, "MEAN_MOTION_DDOT": 0}, "tle": {"line1": "1 36430U 93036BAD 25341.63541315  .00002154  00000+0  83938-3 0  9995", "line2": "2 36430  74.0036 117.7938 0097335 268.8676  90.1319 14.27773173644845"}}, "geometry": {"type": "Point", "coordinates": [133.3938902343885, 58.10319195544404]}}]}